STARLINK-35808          
1 68052U 26041N   26083.91667824  .00048484  00000+0  31896-3 0  9993
2 68052  53.1583 345.8865 0000793  79.0151   4.7706 15.75215820  4788
STARLINK-36919          
1 68053U 26041P   26083.95062463  .00153970  00000+0  76709-3 0  9995
2 68053  53.1592 345.5461 0000866  96.0922 264.0199 15.80949432  3633
STARLINK-36924          
1 68054U 26041Q   26083.98352995  .00149418  00000+0  95961-3 0  9994
2 68054  53.1603 345.7655 0001288 130.4830 229.6303 15.75290435  3634
STARLINK-35998          
1 68055U 26041R   26083.91667824  .00079825  00000+0  52094-3 0  9992
2 68055  53.1585 345.8300 0001498  67.4603  43.9470 15.75197282  4787
STARLINK-36845          
1 68056U 26041S   26083.91667824  .00057402  00000+0  37667-3 0  9999
2 68056  53.1590 345.7775 0001326  67.8218  69.3406 15.75203607  4820
STARLINK-36954          
1 68057U 26041T   26083.98320489  .00263336  00000+0  16692-2 0  9999
2 68057  53.1605 345.7605 0000963 151.1449 208.9624 15.75237013  3638
STARLINK-36899          
1 68058U 26041U   26083.97899202  .00170487  00000+0  10910-2 0  9994
2 68058  53.1602 345.7343 0000705  83.1132 276.9968 15.75303785  3638
STARLINK-36917          
1 68059U 26041V   26083.96958748  .00229026  00000+0  14549-2 0  9991
2 68059  53.1588 345.6713 0000894  56.4554 303.6551 15.75289304  3638
STARLINK-36959          
1 68060U 26041W   26083.97445581  .00216476  00000+0  13804-2 0  9998
2 68060  53.1595 345.7027 0000979  63.1781 296.9339 15.75240462  3638
STARLINK-36915          
1 68061U 26041X   26083.91667824 -.00069888  00000+0 -45496-3 0  9997
2 68061  53.1586 345.7797 0001244 126.6261   8.6569 15.75265539  4824
STARLINK-36952          
1 68062U 26041Y   26083.97866459  .00234253  00000+0  14902-2 0  9994
2 68062  53.1602 345.7317 0000840  74.4817 285.6296 15.75241752  3633
STARLINK-37000          
1 68063U 26041Z   26083.91667824 -.00054162  00000+0 -35122-3 0  9993
2 68063  53.1583 345.8325 0000874  89.5367  20.0073 15.75252292  4823
