CCSDS_OMM_VERS = 2.0
CREATION_DATE  = 
ORIGINATOR     = 

OBJECT_NAME    = STARLINK-35808
OBJECT_ID      = 2026-041N
CENTER_NAME    = EARTH
REF_FRAME      = TEME
TIME_SYSTEM    = UTC
MEAN_ELEMENT_THEORY = SGP/SGP4

EPOCH          = 2026-03-24T22:00:00.999936
MEAN_MOTION    = 15.75215820
ECCENTRICITY   = .0000793
INCLINATION    = 53.1583
RA_OF_ASC_NODE = 345.8865
ARG_OF_PERICENTER = 79.0151
MEAN_ANOMALY   = 4.7706

EPHEMERIS_TYPE = 0
CLASSIFICATION_TYPE = U
NORAD_CAT_ID   = 68052
ELEMENT_SET_NO = 999
REV_AT_EPOCH   = 478
BSTAR          = .31896457E-3
MEAN_MOTION_DOT = .48484E-3
MEAN_MOTION_DDOT = 0

CCSDS_OMM_VERS = 2.0
CREATION_DATE  = 
ORIGINATOR     = 

OBJECT_NAME    = STARLINK-36919
OBJECT_ID      = 2026-041P
CENTER_NAME    = EARTH
REF_FRAME      = TEME
TIME_SYSTEM    = UTC
MEAN_ELEMENT_THEORY = SGP/SGP4

EPOCH          = 2026-03-24T22:48:53.968032
MEAN_MOTION    = 15.80949432
ECCENTRICITY   = .0000866
INCLINATION    = 53.1592
RA_OF_ASC_NODE = 345.5461
ARG_OF_PERICENTER = 96.0922
MEAN_ANOMALY   = 264.0199

EPHEMERIS_TYPE = 0
CLASSIFICATION_TYPE = U
NORAD_CAT_ID   = 68053
ELEMENT_SET_NO = 999
REV_AT_EPOCH   = 363
BSTAR          = .7670904E-3
MEAN_MOTION_DOT = .15397E-2
MEAN_MOTION_DDOT = 0

CCSDS_OMM_VERS = 2.0
CREATION_DATE  = 
ORIGINATOR     = 

OBJECT_NAME    = STARLINK-36924
OBJECT_ID      = 2026-041Q
CENTER_NAME    = EARTH
REF_FRAME      = TEME
TIME_SYSTEM    = UTC
MEAN_ELEMENT_THEORY = SGP/SGP4

EPOCH          = 2026-03-24T23:36:16.987680
MEAN_MOTION    = 15.75290435
ECCENTRICITY   = .00012887
INCLINATION    = 53.1603
RA_OF_ASC_NODE = 345.7655
ARG_OF_PERICENTER = 130.4830
MEAN_ANOMALY   = 229.6303

EPHEMERIS_TYPE = 0
CLASSIFICATION_TYPE = U
NORAD_CAT_ID   = 68054
ELEMENT_SET_NO = 999
REV_AT_EPOCH   = 363
BSTAR          = .95961077E-3
MEAN_MOTION_DOT = .149418E-2
MEAN_MOTION_DDOT = 0

CCSDS_OMM_VERS = 2.0
CREATION_DATE  = 
ORIGINATOR     = 

OBJECT_NAME    = STARLINK-35998
OBJECT_ID      = 2026-041R
CENTER_NAME    = EARTH
REF_FRAME      = TEME
TIME_SYSTEM    = UTC
MEAN_ELEMENT_THEORY = SGP/SGP4

EPOCH          = 2026-03-24T22:00:00.999936
MEAN_MOTION    = 15.75197282
ECCENTRICITY   = .00014983
INCLINATION    = 53.1585
RA_OF_ASC_NODE = 345.8300
ARG_OF_PERICENTER = 67.4603
MEAN_ANOMALY   = 43.9470

EPHEMERIS_TYPE = 0
CLASSIFICATION_TYPE = U
NORAD_CAT_ID   = 68055
ELEMENT_SET_NO = 999
REV_AT_EPOCH   = 478
BSTAR          = .52093969E-3
MEAN_MOTION_DOT = .79825E-3
MEAN_MOTION_DDOT = 0

CCSDS_OMM_VERS = 2.0
CREATION_DATE  = 
ORIGINATOR     = 

OBJECT_NAME    = STARLINK-36845
OBJECT_ID      = 2026-041S
CENTER_NAME    = EARTH
REF_FRAME      = TEME
TIME_SYSTEM    = UTC
MEAN_ELEMENT_THEORY = SGP/SGP4

EPOCH          = 2026-03-24T22:00:00.999936
MEAN_MOTION    = 15.75203607
ECCENTRICITY   = .00013262
INCLINATION    = 53.1590
RA_OF_ASC_NODE = 345.7775
ARG_OF_PERICENTER = 67.8218
MEAN_ANOMALY   = 69.3406

EPHEMERIS_TYPE = 0
CLASSIFICATION_TYPE = U
NORAD_CAT_ID   = 68056
ELEMENT_SET_NO = 999
REV_AT_EPOCH   = 482
BSTAR          = .37666673E-3
MEAN_MOTION_DOT = .57402E-3
MEAN_MOTION_DDOT = 0

CCSDS_OMM_VERS = 2.0
CREATION_DATE  = 
ORIGINATOR     = 

OBJECT_NAME    = STARLINK-36954
OBJECT_ID      = 2026-041T
CENTER_NAME    = EARTH
REF_FRAME      = TEME
TIME_SYSTEM    = UTC
MEAN_ELEMENT_THEORY = SGP/SGP4

EPOCH          = 2026-03-24T23:35:48.902496
MEAN_MOTION    = 15.75237013
ECCENTRICITY   = .00009632
INCLINATION    = 53.1605
RA_OF_ASC_NODE = 345.7605
ARG_OF_PERICENTER = 151.1449
MEAN_ANOMALY   = 208.9624

EPHEMERIS_TYPE = 0
CLASSIFICATION_TYPE = U
NORAD_CAT_ID   = 68057
ELEMENT_SET_NO = 999
REV_AT_EPOCH   = 363
BSTAR          = .16692182E-2
MEAN_MOTION_DOT = .263336E-2
MEAN_MOTION_DDOT = 0

CCSDS_OMM_VERS = 2.0
CREATION_DATE  = 
ORIGINATOR     = 

OBJECT_NAME    = STARLINK-36899
OBJECT_ID      = 2026-041U
CENTER_NAME    = EARTH
REF_FRAME      = TEME
TIME_SYSTEM    = UTC
MEAN_ELEMENT_THEORY = SGP/SGP4

EPOCH          = 2026-03-24T23:29:44.910528
MEAN_MOTION    = 15.75303785
ECCENTRICITY   = .00007055
INCLINATION    = 53.1602
RA_OF_ASC_NODE = 345.7343
ARG_OF_PERICENTER = 83.1132
MEAN_ANOMALY   = 276.9968

EPHEMERIS_TYPE = 0
CLASSIFICATION_TYPE = U
NORAD_CAT_ID   = 68058
ELEMENT_SET_NO = 999
REV_AT_EPOCH   = 363
BSTAR          = .10909725E-2
MEAN_MOTION_DOT = .170487E-2
MEAN_MOTION_DDOT = 0

CCSDS_OMM_VERS = 2.0
CREATION_DATE  = 
ORIGINATOR     = 

OBJECT_NAME    = STARLINK-36917
OBJECT_ID      = 2026-041V
CENTER_NAME    = EARTH
REF_FRAME      = TEME
TIME_SYSTEM    = UTC
MEAN_ELEMENT_THEORY = SGP/SGP4

EPOCH          = 2026-03-24T23:16:12.358272
MEAN_MOTION    = 15.75289304
ECCENTRICITY   = .00008949
INCLINATION    = 53.1588
RA_OF_ASC_NODE = 345.6713
ARG_OF_PERICENTER = 56.4554
MEAN_ANOMALY   = 303.6551

EPHEMERIS_TYPE = 0
CLASSIFICATION_TYPE = U
NORAD_CAT_ID   = 68059
ELEMENT_SET_NO = 999
REV_AT_EPOCH   = 363
BSTAR          = .14549081E-2
MEAN_MOTION_DOT = .229026E-2
MEAN_MOTION_DDOT = 0

CCSDS_OMM_VERS = 2.0
CREATION_DATE  = 
ORIGINATOR     = 

OBJECT_NAME    = STARLINK-36959
OBJECT_ID      = 2026-041W
CENTER_NAME    = EARTH
REF_FRAME      = TEME
TIME_SYSTEM    = UTC
MEAN_ELEMENT_THEORY = SGP/SGP4

EPOCH          = 2026-03-24T23:23:12.981984
MEAN_MOTION    = 15.75240462
ECCENTRICITY   = .00009793
INCLINATION    = 53.1595
RA_OF_ASC_NODE = 345.7027
ARG_OF_PERICENTER = 63.1781
MEAN_ANOMALY   = 296.9339

EPHEMERIS_TYPE = 0
CLASSIFICATION_TYPE = U
NORAD_CAT_ID   = 68060
ELEMENT_SET_NO = 999
REV_AT_EPOCH   = 363
BSTAR          = .13803986E-2
MEAN_MOTION_DOT = .216476E-2
MEAN_MOTION_DDOT = 0

CCSDS_OMM_VERS = 2.0
CREATION_DATE  = 
ORIGINATOR     = 

OBJECT_NAME    = STARLINK-36915
OBJECT_ID      = 2026-041X
CENTER_NAME    = EARTH
REF_FRAME      = TEME
TIME_SYSTEM    = UTC
MEAN_ELEMENT_THEORY = SGP/SGP4

EPOCH          = 2026-03-24T22:00:00.999936
MEAN_MOTION    = 15.75265539
ECCENTRICITY   = .00012442
INCLINATION    = 53.1586
RA_OF_ASC_NODE = 345.7797
ARG_OF_PERICENTER = 126.6261
MEAN_ANOMALY   = 8.6569

EPHEMERIS_TYPE = 0
CLASSIFICATION_TYPE = U
NORAD_CAT_ID   = 68061
ELEMENT_SET_NO = 999
REV_AT_EPOCH   = 482
BSTAR          = -.45496425E-3
MEAN_MOTION_DOT = -.69888E-3
MEAN_MOTION_DDOT = 0

CCSDS_OMM_VERS = 2.0
CREATION_DATE  = 
ORIGINATOR     = 

OBJECT_NAME    = STARLINK-36952
OBJECT_ID      = 2026-041Y
CENTER_NAME    = EARTH
REF_FRAME      = TEME
TIME_SYSTEM    = UTC
MEAN_ELEMENT_THEORY = SGP/SGP4

EPOCH          = 2026-03-24T23:29:16.620576
MEAN_MOTION    = 15.75241752
ECCENTRICITY   = .00008406
INCLINATION    = 53.1602
RA_OF_ASC_NODE = 345.7317
ARG_OF_PERICENTER = 74.4817
MEAN_ANOMALY   = 285.6296

EPHEMERIS_TYPE = 0
CLASSIFICATION_TYPE = U
NORAD_CAT_ID   = 68062
ELEMENT_SET_NO = 999
REV_AT_EPOCH   = 363
BSTAR          = .14901698E-2
MEAN_MOTION_DOT = .234253E-2
MEAN_MOTION_DDOT = 0

CCSDS_OMM_VERS = 2.0
CREATION_DATE  = 
ORIGINATOR     = 

OBJECT_NAME    = STARLINK-37000
OBJECT_ID      = 2026-041Z
CENTER_NAME    = EARTH
REF_FRAME      = TEME
TIME_SYSTEM    = UTC
MEAN_ELEMENT_THEORY = SGP/SGP4

EPOCH          = 2026-03-24T22:00:00.999936
MEAN_MOTION    = 15.75252292
ECCENTRICITY   = .00008743
INCLINATION    = 53.1583
RA_OF_ASC_NODE = 345.8325
ARG_OF_PERICENTER = 89.5367
MEAN_ANOMALY   = 20.0073

EPHEMERIS_TYPE = 0
CLASSIFICATION_TYPE = U
NORAD_CAT_ID   = 68063
ELEMENT_SET_NO = 999
REV_AT_EPOCH   = 482
BSTAR          = -.35121518E-3
MEAN_MOTION_DOT = -.54162E-3
MEAN_MOTION_DDOT = 0

